{"type": "FeatureCollection", "features": [ {"type": "Feature", "properties": {"norad_id": 43622, "name": "BEIDOU-3 M13 (C32)", "group": "beidou", "lat": -38.37096898624926, "lon": -79.47157251855498, "alt_km": 21527.63264139285, "timestamp": "2025-12-10T20:49:52.818912+00:00", "meta": {"OBJECT_NAME": "BEIDOU-3 M13 (C32)", "OBJECT_ID": "2018-072A", "EPOCH": "2025-12-09T10:53:18.929184", "MEAN_MOTION": 1.86230678, "ECCENTRICITY": 0.0005617, "INCLINATION": 56.4562, "RA_OF_ASC_NODE": 68.9299, "ARG_OF_PERICENTER": 299.0719, "MEAN_ANOMALY": 60.8948, "EPHEMERIS_TYPE": 0, "CLASSIFICATION_TYPE": "U", "NORAD_CAT_ID": 43622, "ELEMENT_SET_NO": 999, "REV_AT_EPOCH": 4912, "BSTAR": 0, "MEAN_MOTION_DOT": -4.9e-07, "MEAN_MOTION_DDOT": 0}, "tle": {"line1": "1 43622U 18072A   25343.45369131 -.00000049  00000+0  00000+0 0  9996", "line2": "2 43622  56.4562  68.9299 0005617 299.0719  60.8948  1.86230678 49128"}}, "geometry": {"type": "Point", "coordinates": [-79.47157251855498, -38.37096898624926]}}, {"type": "Feature", "properties": {"norad_id": 43623, "name": "BEIDOU-3 M14 (C33)", "group": "beidou", "lat": -33.62374746475125, "lon": 42.74745582818933, "alt_km": 21523.736710033805, "timestamp": "2025-12-10T20:49:52.818923+00:00", "meta": {"OBJECT_NAME": "BEIDOU-3 M14 (C33)", "OBJECT_ID": "2018-072B", "EPOCH": "2025-12-09T20:32:48.153696", "MEAN_MOTION": 1.86230676, "ECCENTRICITY": 0.00032187, "INCLINATION": 56.4584, "RA_OF_ASC_NODE": 68.9098, "ARG_OF_PERICENTER": 335.8461, "MEAN_ANOMALY": 24.1617, "EPHEMERIS_TYPE": 0, "CLASSIFICATION_TYPE": "U", "NORAD_CAT_ID": 43623, "ELEMENT_SET_NO": 999, "REV_AT_EPOCH": 4912, "BSTAR": 0, "MEAN_MOTION_DOT": -5.1e-07, "MEAN_MOTION_DDOT": 0}, "tle": {"line1": "1 43623U 18072B   25343.85611289 -.00000051  00000+0  00000+0 0  9998", "line2": "2 43623  56.4584  68.9098 0003218 335.8461  24.1617  1.86230676 49122"}}, "geometry": {"type": "Point", "coordinates": [42.74745582818933, -33.62374746475125]}}, {"type": "Feature", "properties": {"norad_id": 43647, "name": "BEIDOU-3 M16 (C35)", "group": "beidou", "lat": -25.95302513917318, "lon": 147.06726069006896, "alt_km": 21550.584254609494, "timestamp": "2025-12-10T20:49:52.818934+00:00", "meta": {"OBJECT_NAME": "BEIDOU-3 M16 (C35)", "OBJECT_ID": "2018-078A", "EPOCH": "2025-12-08T22:33:41.935680", "MEAN_MOTION": 1.86232209, "ECCENTRICITY": 0.0007116, "INCLINATION": 54.2656, "RA_OF_ASC_NODE": 306.6541, "ARG_OF_PERICENTER": 19.0293, "MEAN_ANOMALY": 340.9862, "EPHEMERIS_TYPE": 0, "CLASSIFICATION_TYPE": "U", "NORAD_CAT_ID": 43647, "ELEMENT_SET_NO": 999, "REV_AT_EPOCH": 4861, "BSTAR": 0, "MEAN_MOTION_DOT": -7.5e-07, "MEAN_MOTION_DDOT": 0}, "tle": {"line1": "1 43647U 18078A   25342.94006870 -.00000075  00000+0  00000+0 0  9999", "line2": "2 43647  54.2656 306.6541 0007116  19.0293 340.9862  1.86232209 48612"}}, "geometry": {"type": "Point", "coordinates": [147.06726069006896, -25.95302513917318]}}, {"type": "Feature", "properties": {"norad_id": 43648, "name": "BEIDOU-3 M15 (C34)", "group": "beidou", "lat": 41.031209508164736, "lon": 87.79734517959467, "alt_km": 21526.09481863317, "timestamp": "2025-12-10T20:49:52.818945+00:00", "meta": {"OBJECT_NAME": "BEIDOU-3 M15 (C34)", "OBJECT_ID": "2018-078B", "EPOCH": "2025-12-09T14:32:59.144640", "MEAN_MOTION": 1.86231871, "ECCENTRICITY": 0.0003622, "INCLINATION": 54.2606, "RA_OF_ASC_NODE": 306.6314, "ARG_OF_PERICENTER": 18.0065, "MEAN_ANOMALY": 341.9965, "EPHEMERIS_TYPE": 0, "CLASSIFICATION_TYPE": "U", "NORAD_CAT_ID": 43648, "ELEMENT_SET_NO": 999, "REV_AT_EPOCH": 4864, "BSTAR": 0, "MEAN_MOTION_DOT": -7.7e-07, "MEAN_MOTION_DDOT": 0}, "tle": {"line1": "1 43648U 18078B   25343.60624010 -.00000077  00000+0  00000+0 0  9998", "line2": "2 43648  54.2606 306.6314 0003622  18.0065 341.9965  1.86231871 48642"}}, "geometry": {"type": "Point", "coordinates": [87.79734517959467, 41.031209508164736]}}, {"type": "Feature", "properties": {"norad_id": 43683, "name": "BEIDOU-3 G1 (C59)", "group": "beidou", "lat": 2.432880846350955, "lon": 172.3592537228513, "alt_km": 35778.1855221457, "timestamp": "2025-12-10T20:49:52.818956+00:00", "meta": {"OBJECT_NAME": "BEIDOU-3 G1 (C59)", "OBJECT_ID": "2018-085A", "EPOCH": "2025-12-10T06:12:22.341024", "MEAN_MOTION": 1.00271312, "ECCENTRICITY": 0.0001857, "INCLINATION": 2.6013, "RA_OF_ASC_NODE": 103.0522, "ARG_OF_PERICENTER": 65.4692, "MEAN_ANOMALY": 143.8794, "EPHEMERIS_TYPE": 0, "CLASSIFICATION_TYPE": "U", "NORAD_CAT_ID": 43683, "ELEMENT_SET_NO": 999, "REV_AT_EPOCH": 2616, "BSTAR": 0, "MEAN_MOTION_DOT": -2.74e-06, "MEAN_MOTION_DDOT": 0}, "tle": {"line1": "1 43683U 18085A   25344.25859191 -.00000274  00000+0  00000+0 0  9996", "line2": "2 43683   2.6013 103.0522 0001857  65.4692 143.8794  1.00271312 26162"}}, "geometry": {"type": "Point", "coordinates": [172.3592537228513, 2.432880846350955]}}, {"type": "Feature", "properties": {"norad_id": 43706, "name": "BEIDOU-3 M17 (C36)", "group": "beidou", "lat": 15.837446547490298, "lon": -159.48113967856503, "alt_km": 21521.1973408798, "timestamp": "2025-12-10T20:49:52.818967+00:00", "meta": {"OBJECT_NAME": "BEIDOU-3 M17 (C36)", "OBJECT_ID": "2018-093A", "EPOCH": "2025-12-10T13:45:05.408064", "MEAN_MOTION": 1.86228361, "ECCENTRICITY": 0.00062551, "INCLINATION": 54.1726, "RA_OF_ASC_NODE": 188.6952, "ARG_OF_PERICENTER": 307.2652, "MEAN_ANOMALY": 234.6216, "EPHEMERIS_TYPE": 0, "CLASSIFICATION_TYPE": "U", "NORAD_CAT_ID": 43706, "ELEMENT_SET_NO": 999, "REV_AT_EPOCH": 4802, "BSTAR": 0, "MEAN_MOTION_DOT": 5.7e-07, "MEAN_MOTION_DDOT": 0}, "tle": {"line1": "1 43706U 18093A   25344.57297926  .00000057  00000+0  00000+0 0  9996", "line2": "2 43706  54.1726 188.6952 0006255 307.2652 234.6216  1.86228361 48024"}}, "geometry": {"type": "Point", "coordinates": [-159.48113967856503, 15.837446547490298]}}, {"type": "Feature", "properties": {"norad_id": 43707, "name": "BEIDOU-3 M18 (C37)", "group": "beidou", "lat": 48.44276954344919, "lon": -45.90661451979953, "alt_km": 21531.681056007437, "timestamp": "2025-12-10T20:49:52.818978+00:00", "meta": {"OBJECT_NAME": "BEIDOU-3 M18 (C37)", "OBJECT_ID": "2018-093B", "EPOCH": "2025-12-09T02:08:32.306784", "MEAN_MOTION": 1.86226655, "ECCENTRICITY": 0.00062934, "INCLINATION": 54.1729, "RA_OF_ASC_NODE": 188.7377, "ARG_OF_PERICENTER": 351.6926, "MEAN_ANOMALY": 8.358, "EPHEMERIS_TYPE": 0, "CLASSIFICATION_TYPE": "U", "NORAD_CAT_ID": 43707, "ELEMENT_SET_NO": 999, "REV_AT_EPOCH": 4799, "BSTAR": 0, "MEAN_MOTION_DOT": 4.9e-07, "MEAN_MOTION_DDOT": 0}, "tle": {"line1": "1 43707U 18093B   25343.08926281  .00000049  00000+0  00000+0 0  9996", "line2": "2 43707  54.1729 188.7377 0006293 351.6926   8.3580  1.86226655 47998"}}, "geometry": {"type": "Point", "coordinates": [-45.90661451979953, 48.44276954344919]}}, {"type": "Feature", "properties": {"norad_id": 44204, "name": "BEIDOU-3 IGSO-1 (C38)", "group": "beidou", "lat": 55.12467025453734, "lon": 157.84188698074067, "alt_km": 35837.122879832306, "timestamp": "2025-12-10T20:49:52.818990+00:00", "meta": {"OBJECT_NAME": "BEIDOU-3 IGSO-1 (C38)", "OBJECT_ID": "2019-023A", "EPOCH": "2025-11-19T14:15:02.708640", "MEAN_MOTION": 1.00252177, "ECCENTRICITY": 0.0026966, "INCLINATION": 58.4003, "RA_OF_ASC_NODE": 39.8168, "ARG_OF_PERICENTER": 221.2202, "MEAN_ANOMALY": 126.9723, "EPHEMERIS_TYPE": 0, "CLASSIFICATION_TYPE": "U", "NORAD_CAT_ID": 44204, "ELEMENT_SET_NO": 999, "REV_AT_EPOCH": 510, "BSTAR": 0, "MEAN_MOTION_DOT": -2.26e-06, "MEAN_MOTION_DDOT": 0}, "tle": {"line1": "1 44204U 19023A   25323.59378135 -.00000226  00000+0  00000+0 0  9994", "line2": "2 44204  58.4003  39.8168 0026966 221.2202 126.9723  1.00252177  5102"}}, "geometry": {"type": "Point", "coordinates": [157.84188698074067, 55.12467025453734]}}, {"type": "Feature", "properties": {"norad_id": 44231, "name": "BEIDOU-2 G8 (C01)", "group": "beidou", "lat": 1.6162669805882146, "lon": 176.78290129697373, "alt_km": 35819.101951032746, "timestamp": "2025-12-10T20:49:52.819004+00:00", "meta": {"OBJECT_NAME": "BEIDOU-2 G8 (C01)", "OBJECT_ID": "2019-027A", "EPOCH": "2025-12-10T13:34:00.693120", "MEAN_MOTION": 1.00268228, "ECCENTRICITY": 0.00086103, "INCLINATION": 1.6567, "RA_OF_ASC_NODE": 74.6882, "ARG_OF_PERICENTER": 255.1063, "MEAN_ANOMALY": 97.7679, "EPHEMERIS_TYPE": 0, "CLASSIFICATION_TYPE": "U", "NORAD_CAT_ID": 44231, "ELEMENT_SET_NO": 999, "REV_AT_EPOCH": 2418, "BSTAR": 0, "MEAN_MOTION_DOT": -2.44e-06, "MEAN_MOTION_DDOT": 0}, "tle": {"line1": "1 44231U 19027A   25344.56528580 -.00000244  00000+0  00000+0 0  9999", "line2": "2 44231   1.6567  74.6882 0008610 255.1063  97.7679  1.00268228 24182"}}, "geometry": {"type": "Point", "coordinates": [176.78290129697373, 1.6162669805882146]}}, {"type": "Feature", "properties": {"norad_id": 44337, "name": "BEIDOU-3 IGSO-2 (C39)", "group": "beidou", "lat": -6.937320995557616, "lon": 155.6513479235216, "alt_km": 35922.58981885848, "timestamp": "2025-12-10T20:49:52.819016+00:00", "meta": {"OBJECT_NAME": "BEIDOU-3 IGSO-2 (C39)", "OBJECT_ID": "2019-035A", "EPOCH": "2025-12-08T21:18:38.600064", "MEAN_MOTION": 1.00272014, "ECCENTRICITY": 0.0037301, "INCLINATION": 55.2241, "RA_OF_ASC_NODE": 160.5341, "ARG_OF_PERICENTER": 202.3504, "MEAN_ANOMALY": 154.1975, "EPHEMERIS_TYPE": 0, "CLASSIFICATION_TYPE": "U", "NORAD_CAT_ID": 44337, "ELEMENT_SET_NO": 999, "REV_AT_EPOCH": 2375, "BSTAR": 0, "MEAN_MOTION_DOT": -7.9e-07, "MEAN_MOTION_DDOT": 0}, "tle": {"line1": "1 44337U 19035A   25342.88794676 -.00000079  00000+0  00000+0 0  9995", "line2": "2 44337  55.2241 160.5341 0037301 202.3504 154.1975  1.00272014 23758"}}, "geometry": {"type": "Point", "coordinates": [155.6513479235216, -6.937320995557616]}}]}